GLOBALSTAR M035         
1 25851U 99037A   24332.24663433  .00000004  00000+0  25690-2 0  9991
2 25851  51.9909 145.3107 0014012  20.6925 149.6969 11.04535197 73953
GLOBALSTAR M032         
1 25852U 99037B   24331.47778478 -.00000145  00000+0 -25105-2 0  9991
2 25852  51.9979 346.2061 0010678 187.4334 172.6309 11.19054968112093
GLOBALSTAR M051         
1 25853U 99037C   24331.72512062 -.00000030  00000+0  10358-2 0  9991
2 25853  51.9756 169.3063 0001094 144.6432 215.4451 11.42199328109253
GLOBALSTAR M030         
1 25854U 99037D   24332.11166956 -.00000076  00000+0 -31570-4 0  9995
2 25854  51.9903 347.3278 0003886  46.5176 313.5963 11.55100124126796
GLOBALSTAR M048         
1 25872U 99041A   24332.31202380 -.00000061  00000+0  25354-3 0  9999
2 25872  51.9360  95.1158 0013556 190.6329 181.8373 11.33852151101967
GLOBALSTAR M026         
1 25873U 99041B   24332.14226708 -.00000147  00000+0 -30449-2 0  9997
2 25873  52.0013 265.6268 0001093 310.2854 186.8340 11.06826496126315
GLOBALSTAR M043         
1 25874U 99041C   24331.91603715 -.00000031  00000+0  11155-2 0  9993
2 25874  51.9374 195.6438 0012797 331.7630 160.5407 11.25688077100090
GLOBALSTAR M028         
1 25875U 99041D   24331.78418729 -.00000069  00000+0  20441-3 0  9998
2 25875  51.9633  76.5891 0062904 352.4454   7.5454 12.50570629164856
